{"type":"FeatureCollection","features":[{"type":"Feature","properties":{"name":"Mara\u00f1\u00f3n","waterway":"river"},"geometry":{"type":"MultiLineString","coordinates":[[[-78.69311,-5.75324],[-78.69097,-5.74768],[-78.68366,-5.7421],[-78.65958,-5.73797],[-78.6556,-5.7321],[-78.65714,-5.71801],[-78.67113,-5.71786],[-78.67495,-5.71556],[-78.6854,-5.70552],[-78.68701,-5.69871],[-78.68303,-5.69292],[-78.67703,-5.6899],[-78.67323,-5.68182],[-78.67132,-5.68022],[-78.66894,-5.67917],[-78.66301,-5.68194],[-78.65107,-5.67521],[-78.64663,-5.65756],[-78.64279,-5.65121],[-78.6432,-5.64814],[-78.64217,-5.64656],[-78.63131,-5.64502],[-78.62949,-5.63818],[-78.62184,-5.63759],[-78.61895,-5.63557],[-78.61816,-5.6329],[-78.62047,-5.62551],[-78.60888,-5.61657],[-78.60662,-5.6126],[-78.60242,-5.61156],[-78.61438,-5.59316],[-78.61155,-5.59096],[-78.60691,-5.59032],[-78.59646,-5.58164],[-78.59358,-5.57561],[-78.59307,-5.56798],[-78.58881,-5.56333],[-78.58603,-5.55714],[-78.57431,-5.5516],[-78.574,-5.54473],[-78.56432,-5.54155],[-78.56173,-5.53215],[-78.5522,-5.52855],[-78.55077,-5.5266],[-78.54905,-5.51601],[-78.55217,-5.51251],[-78.55269,-5.50778],[-78.55559,-5.5052],[-78.55799,-5.50025],[-78.55679,-5.49512],[-78.55336,-5.49341],[-78.55215,-5.49085],[-78.54975,-5.48965],[-78.5371,-5.47518],[-78.53138,-5.47274],[-78.51817,-5.47101],[-78.50652,-5.46488],[-78.50034,-5.45811],[-78.48908,-5.45134],[-78.4886,-5.44711],[-78.4865,-5.4448],[-78.47702,-5.44155],[-78.47221,-5.43604],[-78.45429,-5.42669],[-78.45262,-5.42455],[-78.45635,-5.42252],[-78.45841,-5.41705],[-78.45717,-5.4115],[-78.44833,-5.39872],[-78.4523,-5.38761],[-78.45167,-5.38163],[-78.45391,-5.37364],[-78.45335,-5.36382],[-78.45552,-5.35356],[-78.45449,-5.34786],[-78.45228,-5.34444],[-78.45348,-5.33861],[-78.4477,-5.3326],[-78.44431,-5.31936],[-78.44017,-5.31638],[-78.43794,-5.31137],[-78.43259,-5.31078],[-78.43076,-5.30868],[-78.43178,-5.30274],[-78.42633,-5.29602],[-78.4249,-5.28675],[-78.42794,-5.28184],[-78.42581,-5.27807],[-78.42641,-5.27485],[-78.43131,-5.27314],[-78.43234,-5.26896],[-78.43508,-5.26611],[-78.43749,-5.26611],[-78.43929,-5.261],[-78.44056,-5.26029],[-78.44315,-5.26149],[-78.44862,-5.25819],[-78.4507,-5.25055],[-78.45774,-5.2485],[-78.4633,-5.2418],[-78.46144,-5.22948],[-78.46374,-5.22071],[-78.46226,-5.20938],[-78.46432,-5.20442],[-78.46514,-5.1977],[-78.46414,-5.1929],[-78.45806,-5.17952],[-78.45515,-5.17647],[-78.44778,-5.17421],[-78.43648,-5.17963],[-78.42564,-5.18029],[-78.41144,-5.17186],[-78.40213,-5.17187],[-78.39606,-5.16983],[-78.37964,-5.18422],[-78.37723,-5.18388],[-78.37637,-5.18268],[-78.37758,-5.18115],[-78.37723,-5.17841],[-78.37441,-5.17186],[-78.36739,-5.16591],[-78.36443,-5.16593],[-78.36075,-5.16798],[-78.35749,-5.17157],[-78.3552,-5.17739],[-78.35367,-5.17867],[-78.35097,-5.1785],[-78.34852,-5.17784],[-78.34674,-5.17481],[-78.34936,-5.17166],[-78.35011,-5.16456],[-78.34045,-5.1526],[-78.33445,-5.14992],[-78.33327,-5.14827],[-78.33185,-5.14059],[-78.33253,-5.13608],[-78.34408,-5.13459],[-78.35308,-5.13528],[-78.35448,-5.13761],[-78.3567,-5.13819],[-78.36446,-5.13366],[-78.36594,-5.12886],[-78.36199,-5.12473],[-78.36169,-5.12273],[-78.36598,-5.10734],[-78.36219,-5.09979],[-78.34727,-5.08494],[-78.34459,-5.07476],[-78.34896,-5.07041],[-78.34916,-5.06836],[-78.34611,-5.06118],[-78.34313,-5.05848],[-78.33509,-5.05632],[-78.33216,-5.04818],[-78.33319,-5.04613],[-78.33899,-5.04192],[-78.34152,-5.03509],[-78.33985,-5.03243],[-78.33406,-5.03042],[-78.33302,-5.02869],[-78.33714,-5.01655],[-78.33603,-5.01357],[-78.33161,-5.01236],[-78.32974,-5.00808],[-78.33319,-4.99175],[-78.33817,-4.98474],[-78.33783,-4.98217],[-78.33461,-4.97993],[-78.3333,-4.9773],[-78.33337,-4.96935],[-78.33098,-4.96251],[-78.33678,-4.96032],[-78.33628,-4.95413],[-78.34182,-4.9521],[-78.34238,-4.94613],[-78.34171,-4.94295],[-78.33463,-4.93359],[-78.32932,-4.92264],[-78.32676,-4.91216],[-78.31389,-4.89816],[-78.30956,-4.88979],[-78.30298,-4.88383],[-78.30247,-4.88195],[-78.30985,-4.87323],[-78.31471,-4.86437],[-78.3173,-4.86311],[-78.32192,-4.86351],[-78.32314,-4.86215],[-78.3233,-4.85414],[-78.31558,-4.84412],[-78.30521,-4.83799],[-78.30371,-4.83397],[-78.3022,-4.81187],[-78.29464,-4.8018],[-78.28479,-4.79369],[-78.28496,-4.79078],[-78.29178,-4.78379],[-78.28976,-4.77504],[-78.28329,-4.77003],[-78.27361,-4.75975],[-78.27173,-4.76366],[-78.26587,-4.76331],[-78.2617,-4.77134],[-78.24948,-4.77841],[-78.24579,-4.77919],[-78.22659,-4.76626],[-78.22041,-4.76341],[-78.20825,-4.75508],[-78.20273,-4.74929],[-78.20044,-4.74872],[-78.19312,-4.75229],[-78.18539,-4.76358],[-78.1823,-4.7641],[-78.18144,-4.75914],[-78.18968,-4.74357],[-78.18993,-4.73729],[-78.18494,-4.73075],[-78.1709,-4.73079],[-78.16758,-4.72725],[-78.1694,-4.72427],[-78.17787,-4.72031],[-78.17933,-4.7184],[-78.18162,-4.71294],[-78.18279,-4.70332],[-78.18575,-4.69935],[-78.18718,-4.69338],[-78.18554,-4.69274],[-78.17758,-4.69622],[-78.17518,-4.69502],[-78.17432,-4.69245],[-78.17672,-4.68732],[-78.17717,-4.67341],[-78.17307,-4.65367],[-78.16919,-4.64784],[-78.16333,-4.64626],[-78.15132,-4.64763],[-78.14909,-4.65002],[-78.15509,-4.6555],[-78.15595,-4.65858],[-78.15509,-4.66114],[-78.15235,-4.66354],[-78.15012,-4.66371],[-78.14685,-4.66114],[-78.14545,-4.65764],[-78.14178,-4.65637],[-78.13982,-4.65875],[-78.14033,-4.66593],[-78.13913,-4.66713],[-78.13621,-4.66747],[-78.1325,-4.6648],[-78.12317,-4.66559],[-78.12025,-4.66456],[-78.10737,-4.66679],[-78.09919,-4.6636],[-78.09244,-4.66337],[-78.08832,-4.66593],[-78.08471,-4.67038],[-78.08437,-4.6815],[-78.08248,-4.6839],[-78.07661,-4.68486],[-78.07384,-4.68843],[-78.07235,-4.69519],[-78.07544,-4.70306],[-78.07167,-4.71127],[-78.06531,-4.7156],[-78.05937,-4.71599],[-78.05296,-4.70973],[-78.05272,-4.70085],[-78.04746,-4.69912],[-78.04364,-4.69613],[-78.03354,-4.69335],[-78.0327,-4.68954],[-78.03527,-4.67842],[-78.03459,-4.67363],[-78.02656,-4.65525],[-78.02274,-4.65396],[-78.0188,-4.65721],[-78.01835,-4.66167],[-78.01415,-4.66814],[-78.00575,-4.66867],[-77.99741,-4.66275],[-78.00024,-4.64294],[-77.98671,-4.62163],[-77.97537,-4.61974],[-77.96644,-4.62059],[-77.957,-4.61905],[-77.94618,-4.61957],[-77.93932,-4.617],[-77.93485,-4.61409],[-77.92867,-4.60382],[-77.9194,-4.60109],[-77.91185,-4.59749],[-77.90804,-4.59422],[-77.90155,-4.58552],[-77.90001,-4.58107],[-77.89269,-4.57637],[-77.88673,-4.57615],[-77.87597,-4.58175],[-77.87014,-4.58928],[-77.86602,-4.59065],[-77.86224,-4.59099],[-77.84988,-4.58774],[-77.83992,-4.58072],[-77.83563,-4.57576],[-77.83306,-4.56994],[-77.82756,-4.56567],[-77.82053,-4.56224],[-77.81229,-4.56019],[-77.80731,-4.55694],[-77.80542,-4.55232],[-77.81006,-4.54821],[-77.80697,-4.53692],[-77.80988,-4.52391],[-77.80714,-4.51929],[-77.79615,-4.5157],[-77.79392,-4.51142],[-77.79358,-4.50663],[-77.79804,-4.49619],[-77.79684,-4.49191],[-77.79049,-4.48387],[-77.77416,-4.47552],[-77.77044,-4.47574],[-77.76274,-4.48774],[-77.75942,-4.48934],[-77.75358,-4.48712],[-77.74156,-4.4748],[-77.73779,-4.47411],[-77.73367,-4.47531],[-77.72697,-4.48455],[-77.72251,-4.4878],[-77.71753,-4.489],[-77.71392,-4.48849],[-77.70826,-4.48062],[-77.70466,-4.47822],[-77.70071,-4.47839],[-77.68938,-4.48489],[-77.68715,-4.48438],[-77.68234,-4.48027],[-77.67753,-4.47377],[-77.67376,-4.46573],[-77.66019,-4.45683],[-77.65916,-4.44861],[-77.65625,-4.44331],[-77.6511,-4.43954],[-77.62745,-4.43705],[-77.6163,-4.44236],[-77.61527,-4.44561],[-77.61132,-4.44766],[-77.60411,-4.45023],[-77.59759,-4.45006],[-77.58746,-4.45725],[-77.57819,-4.46152],[-77.55742,-4.46341],[-77.54883,-4.47179],[-77.54471,-4.47333],[-77.53665,-4.47231],[-77.52703,-4.46683],[-77.52291,-4.46101],[-77.52497,-4.45416],[-77.52274,-4.45194],[-77.49734,-4.43722],[-77.49081,-4.43534],[-77.48463,-4.43722],[-77.47399,-4.44407],[-77.46077,-4.45793],[-77.45648,-4.45913],[-77.45082,-4.45707],[-77.4424,-4.45622],[-77.4364,-4.45793],[-77.4297,-4.46358],[-77.42884,-4.467],[-77.43039,-4.47658],[-77.43588,-4.49096],[-77.43571,-4.49387],[-77.43313,-4.49644],[-77.42026,-4.49541],[-77.41665,-4.49678],[-77.41425,-4.49969],[-77.41219,-4.50756],[-77.40378,-4.51526],[-77.39949,-4.51406],[-77.39485,-4.50414],[-77.39169,-4.50089],[-77.38701,-4.4989],[-77.37837,-4.50089],[-77.37528,-4.50379],[-77.37237,-4.51013],[-77.37168,-4.51817],[-77.37305,-4.52399],[-77.37889,-4.53169],[-77.38215,-4.53391],[-77.39331,-4.53289],[-77.39915,-4.53374],[-77.40241,-4.53597],[-77.4043,-4.53905],[-77.40515,-4.54418],[-77.40035,-4.55411],[-77.40052,-4.5565],[-77.41253,-4.56745],[-77.41442,-4.57618],[-77.41339,-4.58012],[-77.40979,-4.58354],[-77.40172,-4.58422],[-77.39434,-4.58114],[-77.39005,-4.58131],[-77.38558,-4.58456],[-77.38352,-4.59038],[-77.38215,-4.60339],[-77.38061,-4.60647],[-77.37546,-4.60766],[-77.3679,-4.60681],[-77.36275,-4.60818],[-77.35846,-4.61143],[-77.35812,-4.61605],[-77.36189,-4.62426],[-77.36258,-4.6323],[-77.35983,-4.63572],[-77.35303,-4.63923],[-77.3478,-4.64667],[-77.34518,-4.65257],[-77.34421,-4.67148],[-77.34044,-4.67679],[-77.3267,-4.68945],[-77.32533,-4.70416],[-77.32705,-4.71477],[-77.32653,-4.71887],[-77.32327,-4.72384],[-77.314,-4.7252],[-77.29426,-4.72212],[-77.28928,-4.72264],[-77.28242,-4.72709],[-77.28001,-4.73102],[-77.28087,-4.74231],[-77.28619,-4.74761],[-77.29684,-4.75069],[-77.3025,-4.75422],[-77.30555,-4.76069],[-77.30467,-4.76653],[-77.29718,-4.77396],[-77.2922,-4.77362],[-77.27624,-4.76421],[-77.26834,-4.75412],[-77.25461,-4.73222],[-77.25169,-4.72281],[-77.25152,-4.71614],[-77.25752,-4.69937],[-77.25752,-4.69544],[-77.25461,-4.68996],[-77.24465,-4.68106],[-77.24053,-4.67952],[-77.23555,-4.67987],[-77.22903,-4.68432],[-77.2153,-4.71306],[-77.211,-4.71579],[-77.20706,-4.71545],[-77.19933,-4.71135],[-77.17616,-4.70998],[-77.13067,-4.73222],[-77.11693,-4.74077],[-77.10337,-4.74334],[-77.08998,-4.74197],[-77.07608,-4.74488],[-77.06509,-4.74813],[-77.03763,-4.76181],[-77.02492,-4.7625],[-77.01428,-4.76524],[-77.00741,-4.77037],[-77.00123,-4.78166],[-76.98887,-4.79671],[-76.9669,-4.79432],[-76.9518,-4.80663],[-76.93394,-4.81861],[-76.9257,-4.82784],[-76.90098,-4.83503],[-76.89652,-4.83845],[-76.88203,-4.84473],[-76.86528,-4.84803],[-76.85738,-4.847],[-76.84949,-4.84084],[-76.83129,-4.81655],[-76.8258,-4.81347],[-76.80554,-4.81347],[-76.77155,-4.82237],[-76.76091,-4.82305],[-76.75693,-4.82448],[-76.75217,-4.82472],[-76.74132,-4.82107],[-76.72908,-4.81884],[-76.7246,-4.81986],[-76.7022,-4.83469],[-76.68263,-4.84255],[-76.67096,-4.84529],[-76.6507,-4.84255],[-76.62633,-4.84187],[-76.61225,-4.85008],[-76.60092,-4.85418],[-76.59337,-4.85487],[-76.59128,-4.85412],[-76.58478,-4.84187],[-76.57723,-4.83263],[-76.57002,-4.8299],[-76.56247,-4.83092],[-76.55663,-4.83571],[-76.5532,-4.84392],[-76.5453,-4.87984],[-76.53706,-4.88805],[-76.51955,-4.90105],[-76.49861,-4.9055],[-76.48556,-4.90413],[-76.47011,-4.89626],[-76.46599,-4.89558],[-76.46016,-4.899],[-76.45089,-4.90721],[-76.44677,-4.90858],[-76.43281,-4.90924],[-76.40617,-4.91785],[-76.39802,-4.94312],[-76.3939,-4.94894],[-76.38154,-4.95578],[-76.37192,-4.95783],[-76.35991,-4.95783],[-76.34858,-4.95612],[-76.34137,-4.95407],[-76.3266,-4.94346],[-76.31184,-4.94141],[-76.27957,-4.94004],[-76.2679,-4.93457],[-76.25279,-4.92534],[-76.24867,-4.92465],[-76.22498,-4.93628],[-76.20026,-4.94107],[-76.18344,-4.94586],[-76.16627,-4.94586],[-76.15049,-4.94417],[-76.1467,-4.95167],[-76.15117,-4.95749],[-76.15529,-4.96707],[-76.13984,-4.98006],[-76.13503,-4.98827],[-76.13331,-4.99853],[-76.12885,-5.00435],[-76.11649,-5.00982],[-76.09074,-5.01255],[-76.08079,-5.017],[-76.07289,-5.02247],[-76.03684,-5.03957],[-76.01246,-5.04881],[-75.9929,-5.05017],[-75.98637,-5.04949],[-75.96371,-5.03102],[-75.95376,-5.03034],[-75.94346,-5.02794],[-75.93281,-5.02316],[-75.91462,-5.02316],[-75.91139,-5.02514],[-75.905,-5.03786],[-75.89882,-5.04539],[-75.88681,-5.04675],[-75.87651,-5.04539],[-75.85179,-5.02623],[-75.83082,-5.0226],[-75.82604,-5.02281],[-75.81917,-5.02658],[-75.80098,-5.02965],[-75.78415,-5.02623],[-75.75394,-5.03547],[-75.73849,-5.03581],[-75.72407,-5.03239],[-75.69626,-5.01734],[-75.6894,-5.01529],[-75.67589,-5.01494],[-75.66833,-5.0175],[-75.65653,-5.02843],[-75.64545,-5.03547],[-75.62027,-5.03918],[-75.61413,-5.04392],[-75.61126,-5.04469],[-75.60516,-5.05341],[-75.60473,-5.06812],[-75.59834,-5.09146],[-75.58787,-5.09757],[-75.57396,-5.09774],[-75.56512,-5.0919],[-75.55485,-5.07911],[-75.55367,-5.06179],[-75.55375,-5.05025],[-75.55598,-5.0405],[-75.55482,-5.02794],[-75.54952,-5.01278],[-75.54639,-4.99347],[-75.53566,-4.97611],[-75.51411,-4.9626],[-75.51224,-4.95851],[-75.51417,-4.95028],[-75.51458,-4.94083],[-75.50812,-4.93252],[-75.4937,-4.9291],[-75.4628,-4.93252],[-75.44012,-4.93845],[-75.43315,-4.93604],[-75.42619,-4.92902],[-75.41698,-4.92479],[-75.41476,-4.92272],[-75.41199,-4.90173],[-75.41268,-4.88155],[-75.41096,-4.86684],[-75.39263,-4.83483]],[[-75.39263,-4.83483],[-75.38109,-4.81826],[-75.36873,-4.808]],[[-75.39263,-4.83483],[-75.39489,-4.82392],[-75.39383,-4.81961],[-75.36873,-4.808]],[[-75.36873,-4.808],[-75.35191,-4.80047],[-75.32445,-4.79534],[-75.30659,-4.79876],[-75.28428,-4.81176],[-75.28251,-4.81601],[-75.26417,-4.82168],[-75.25244,-4.81523],[-75.23875,-4.81147],[-75.22179,-4.81108],[-75.19364,-4.82545],[-75.15484,-4.82716],[-75.13665,-4.82442],[-75.13047,-4.8145],[-75.12978,-4.79979],[-75.12566,-4.78474],[-75.11536,-4.77516],[-75.08133,-4.75544],[-75.07477,-4.75308],[-75.06833,-4.75394],[-75.06249,-4.75634],[-75.04052,-4.78337],[-75.03331,-4.78747],[-75.02064,-4.78016],[-75.00848,-4.77755],[-75.00001,-4.77242],[-74.99439,-4.76488],[-74.98181,-4.73889],[-74.96258,-4.7341],[-74.91864,-4.73068],[-74.90868,-4.73718],[-74.88946,-4.74539],[-74.88275,-4.74643],[-74.87521,-4.74405],[-74.86835,-4.73594],[-74.86745,-4.73028],[-74.86989,-4.72691],[-74.87504,-4.72657],[-74.88465,-4.72863],[-74.8922,-4.72623],[-74.89667,-4.72076],[-74.89289,-4.71015],[-74.88774,-4.70604],[-74.86324,-4.69544],[-74.83887,-4.6927],[-74.81277,-4.68381],[-74.80758,-4.669],[-74.79796,-4.66012],[-74.77947,-4.59997],[-74.77844,-4.58388],[-74.77364,-4.56643],[-74.76368,-4.55137],[-74.75243,-4.53811],[-74.7363,-4.53356],[-74.73329,-4.5343],[-74.71973,-4.54316],[-74.70772,-4.54795],[-74.69742,-4.54384],[-74.68368,-4.52878],[-74.67373,-4.52673],[-74.66944,-4.52925],[-74.66549,-4.53529],[-74.65965,-4.53803],[-74.65244,-4.537],[-74.6442,-4.52776],[-74.6339,-4.51954],[-74.59133,-4.47231],[-74.58034,-4.46273],[-74.56524,-4.46136],[-74.55219,-4.46991],[-74.55425,-4.48977],[-74.54773,-4.51817],[-74.54018,-4.52947],[-74.52988,-4.53358],[-74.51923,-4.53289],[-74.5055,-4.5281],[-74.48902,-4.52742],[-74.47975,-4.53768],[-74.48147,-4.57875],[-74.47941,-4.60236],[-74.47611,-4.6086],[-74.47127,-4.61378],[-74.46034,-4.61777],[-74.443,-4.6172],[-74.408,-4.60065],[-74.38465,-4.60202],[-74.36096,-4.61366],[-74.3407,-4.62548],[-74.3225,-4.64409],[-74.29879,-4.65139],[-74.27156,-4.64589],[-74.23797,-4.6492],[-74.22751,-4.65471],[-74.20675,-4.65157],[-74.20198,-4.6387],[-74.20805,-4.6221],[-74.22495,-4.61119],[-74.24166,-4.58763],[-74.23869,-4.57759],[-74.21798,-4.55111],[-74.19806,-4.53074],[-74.16621,-4.50686],[-74.15677,-4.49677],[-74.13325,-4.48701],[-74.11607,-4.49214]],[[-74.11607,-4.49214],[-74.11214,-4.48932],[-74.11141,-4.47837],[-74.10032,-4.47227],[-74.09609,-4.47221],[-74.0859,-4.47801],[-74.07967,-4.47911]],[[-74.11607,-4.49214],[-74.10064,-4.49668],[-74.08107,-4.49608],[-74.05386,-4.49266],[-74.04339,-4.48718],[-74.01361,-4.49035],[-73.97867,-4.48599],[-73.95661,-4.48907],[-73.93318,-4.49661],[-73.89061,-4.53015],[-73.88203,-4.55856],[-73.87241,-4.57738],[-73.85868,-4.58765],[-73.83877,-4.61058],[-73.79448,-4.63419],[-73.77182,-4.63419],[-73.74852,-4.62089],[-73.7309,-4.57986],[-73.72275,-4.57757],[-73.69286,-4.57807],[-73.6551,-4.58952],[-73.64044,-4.59062],[-73.62978,-4.58799],[-73.61957,-4.57822],[-73.60771,-4.55753],[-73.57819,-4.51646],[-73.55621,-4.49832],[-73.53061,-4.47943],[-73.50892,-4.47374],[-73.47347,-4.45725],[-73.45013,-4.44219]]]}},{"type":"Feature","properties":{"name":"Rio Amazonas","waterway":"river"},"geometry":{"type":"MultiLineString","coordinates":[[[-73.45013,-4.44219],[-73.44326,-4.42781],[-73.42335,-4.40625],[-73.41717,-4.38434],[-73.42315,-4.36748],[-73.41854,-4.35558],[-73.43708,-4.32101],[-73.43811,-4.3056],[-73.43365,-4.29876],[-73.41648,-4.28369],[-73.39588,-4.27102],[-73.37597,-4.25391],[-73.35262,-4.18817],[-73.34562,-4.1636],[-73.33759,-4.1529],[-73.32862,-4.12137],[-73.32063,-4.11058],[-73.31275,-4.10816],[-73.29987,-4.10939],[-73.28664,-4.11509],[-73.27832,-4.12465],[-73.27477,-4.13266],[-73.26404,-4.17892],[-73.24791,-4.19125],[-73.22559,-4.19125],[-73.20431,-4.17926],[-73.19219,-4.15595],[-73.19034,-4.11589],[-73.18141,-4.09273],[-73.17178,-4.07506],[-73.15767,-4.05941],[-73.14692,-4.04317],[-73.14701,-4.03598],[-73.14973,-4.0295],[-73.16517,-4.00462],[-73.17972,-3.98409],[-73.19561,-3.97137],[-73.22113,-3.95769],[-73.25114,-3.94859],[-73.26934,-3.93997],[-73.27659,-3.93169],[-73.27799,-3.92316],[-73.27637,-3.9161],[-73.27117,-3.909],[-73.25747,-3.89942],[-73.22577,-3.86453],[-73.21124,-3.84977],[-73.16351,-3.81877],[-73.16028,-3.81109],[-73.16118,-3.76034],[-73.1778,-3.73513],[-73.22462,-3.69872],[-73.22817,-3.68192],[-73.22722,-3.66641],[-73.22323,-3.65703],[-73.20946,-3.64401],[-73.18592,-3.62852],[-73.17272,-3.61718],[-73.13284,-3.59284],[-73.09978,-3.55774],[-73.07892,-3.52904],[-73.06765,-3.51859],[-73.05126,-3.50983],[-73.01357,-3.49536],[-72.98927,-3.48872],[-72.96819,-3.48543],[-72.94617,-3.48543],[-72.9237,-3.49047],[-72.90438,-3.4996],[-72.89113,-3.50939],[-72.88272,-3.51114],[-72.85173,-3.49884],[-72.84794,-3.49485],[-72.77275,-3.46675],[-72.73933,-3.46838],[-72.73639,-3.48311],[-72.7298,-3.48788],[-72.71727,-3.49102],[-72.71088,-3.48915],[-72.70309,-3.48899],[-72.69169,-3.49366],[-72.68139,-3.5038],[-72.67557,-3.50415],[-72.66401,-3.49973],[-72.65089,-3.48719],[-72.63503,-3.46002],[-72.56744,-3.47017],[-72.53757,-3.48731],[-72.50874,-3.48525],[-72.47578,-3.4969],[-72.42107,-3.54218],[-72.3539,-3.55002],[-72.31132,-3.54282],[-72.26601,-3.54042],[-72.24737,-3.53981],[-72.24,-3.53957],[-72.22567,-3.53535],[-72.20344,-3.52355],[-72.19245,-3.51299],[-72.18241,-3.49697],[-72.16973,-3.48688],[-72.14825,-3.47347],[-72.12357,-3.46634],[-72.10713,-3.45809],[-72.09065,-3.44017],[-72.08396,-3.43659],[-72.07237,-3.43366],[-72.05495,-3.43332],[-71.99478,-3.44276],[-71.96869,-3.43727],[-71.93092,-3.4174],[-71.89487,-3.40712],[-71.87015,-3.39067],[-71.86123,-3.36599],[-71.85986,-3.3559],[-71.84953,-3.34104],[-71.84544,-3.33842],[-71.83036,-3.33578],[-71.80236,-3.35009],[-71.76346,-3.39819],[-71.74948,-3.42753],[-71.7469,-3.4431],[-71.75239,-3.476],[-71.79325,-3.54316],[-71.79188,-3.55619],[-71.77849,-3.57058],[-71.74313,-3.58463],[-71.74347,-3.62437],[-71.75583,-3.65418],[-71.74519,-3.68947],[-71.72493,-3.71414],[-71.68613,-3.73093],[-71.62983,-3.7508],[-71.57696,-3.76656],[-71.54537,-3.78026],[-71.5361,-3.79225],[-71.53301,-3.8361],[-71.52546,-3.85425],[-71.49284,-3.87035],[-71.4513,-3.87994],[-71.40152,-3.87035],[-71.36753,-3.86144],[-71.33629,-3.85973],[-71.31088,-3.8498],[-71.27878,-3.82625],[-71.26754,-3.82394],[-71.2566,-3.82399],[-71.23695,-3.83242],[-71.22578,-3.84302],[-71.21406,-3.87104],[-71.20651,-3.90323],[-71.20995,-3.93338],[-71.2048,-3.95324],[-71.19441,-3.97328],[-71.17355,-3.99194],[-71.14918,-4.00222],[-71.10283,-4.01626],[-71.0503,-4.00907],[-71.01219,-3.99297],[-71.0012,-3.9779],[-70.9797,-3.9535],[-70.96842,-3.94342],[-70.94108,-3.93201],[-70.92958,-3.931],[-70.86525,-3.93714],[-70.8316,-3.93817],[-70.79727,-3.93235],[-70.76912,-3.9207],[-70.72826,-3.8957],[-70.69221,-3.87617],[-70.64827,-3.86282],[-70.63351,-3.85645],[-70.61865,-3.84752],[-70.61081,-3.83571],[-70.60431,-3.8286],[-70.59722,-3.8217],[-70.58871,-3.81794],[-70.57749,-3.81657],[-70.56967,-3.82032],[-70.56048,-3.82715],[-70.55538,-3.83432],[-70.55027,-3.84798],[-70.54039,-3.8671],[-70.53075,-3.87573],[-70.52372,-3.88007],[-70.51487,-3.88075],[-70.47815,-3.87287],[-70.46659,-3.8691],[-70.45333,-3.86294],[-70.43813,-3.85153],[-70.41482,-3.8282],[-70.4078,-3.82629],[-70.38507,-3.8259],[-70.37186,-3.81898],[-70.35984,-3.80582],[-70.35475,-3.80206],[-70.34761,-3.80035],[-70.33774,-3.80239],[-70.32448,-3.8075],[-70.3095,-3.81125],[-70.284,-3.82376],[-70.26855,-3.84334],[-70.25928,-3.87515],[-70.2543,-3.88436],[-70.24567,-3.89161],[-70.21474,-3.90944],[-70.20192,-3.92734],[-70.17594,-3.95123],[-70.16097,-3.98745],[-70.14601,-4.01077],[-70.12632,-4.03521],[-70.11342,-4.04738],[-70.06187,-4.0827],[-70.04969,-4.10944],[-70.03354,-4.12854],[-70.02462,-4.13521],[-70.01257,-4.13849],[-70.01352,-4.14141],[-70.00684,-4.15263],[-70.00588,-4.15707],[-69.98211,-4.17741],[-69.98088,-4.17886],[-69.97819,-4.19312],[-69.96323,-4.20473],[-69.95156,-4.21618],[-69.94831,-4.22269],[-69.94674,-4.22809],[-69.94985,-4.26274],[-69.94388,-4.28032],[-69.88368,-4.31697],[-69.8654,-4.3337],[-69.84969,-4.34401],[-69.82714,-4.35518],[-69.79342,-4.38111],[-69.75527,-4.36729],[-69.74431,-4.36635],[-69.72129,-4.35873],[-69.6976,-4.34881],[-69.66464,-4.32724],[-69.64747,-4.31936],[-69.62653,-4.31423],[-69.60936,-4.31286],[-69.58808,-4.31423],[-69.56267,-4.30772],[-69.51563,-4.27212],[-69.51218,-4.26792],[-69.49984,-4.25295],[-69.47581,-4.20398],[-69.45761,-4.17805],[-69.43118,-4.1783],[-69.39582,-4.16461],[-69.37556,-4.14543],[-69.37007,-4.13071],[-69.3711,-4.11359],[-69.37933,-4.09228],[-69.39744,-4.08885],[-69.41406,-4.09412],[-69.43371,-4.10123],[-69.49828,-4.13993],[-69.52053,-4.14192],[-69.52672,-4.13996],[-69.53191,-4.13336],[-69.53529,-4.12217],[-69.53769,-4.10418],[-69.53792,-4.08773],[-69.53077,-4.07236],[-69.52593,-4.05811],[-69.51289,-4.04475],[-69.42568,-4.00297],[-69.41195,-3.98208],[-69.40783,-3.95673],[-69.39376,-3.91426],[-69.3917,-3.89337],[-69.3917,-3.86631],[-69.38861,-3.84507],[-69.38895,-3.7978],[-69.41298,-3.75189],[-69.42328,-3.73785],[-69.43152,-3.71318],[-69.42912,-3.68748],[-69.41401,-3.65836],[-69.38449,-3.63746],[-69.35771,-3.61348],[-69.34741,-3.59497],[-69.3529,-3.55385],[-69.34981,-3.53021],[-69.33438,-3.49534],[-69.32762,-3.48828],[-69.31552,-3.48018],[-69.30599,-3.4763],[-69.28904,-3.47504],[-69.18158,-3.47504],[-69.16339,-3.47195],[-69.13386,-3.45859],[-69.07996,-3.43152],[-69.06176,-3.42946],[-69.03327,-3.4346],[-69.00546,-3.44248],[-68.97586,-3.459],[-68.96495,-3.46167],[-68.93885,-3.45482],[-68.89662,-3.44831],[-68.85805,-3.44573],[-68.82166,-3.44915],[-68.78904,-3.4471],[-68.76501,-3.43922],[-68.74338,-3.42791],[-68.71591,-3.40734],[-68.66682,-3.38198],[-68.63661,-3.37067],[-68.61738,-3.37136],[-68.59747,-3.38095],[-68.57378,-3.40049],[-68.56451,-3.40426],[-68.54631,-3.40357],[-68.51541,-3.40015],[-68.47422,-3.37718],[-68.43439,-3.36245],[-68.41448,-3.35765],[-68.3774,-3.35319],[-68.36264,-3.34497],[-68.34367,-3.33048],[-68.33547,-3.3259],[-68.33227,-3.3225],[-68.33054,-3.3174],[-68.32521,-3.27847],[-68.32075,-3.26956],[-68.31755,-3.26631],[-68.30786,-3.2614],[-68.30114,-3.26223],[-68.29616,-3.26564],[-68.28714,-3.28026],[-68.28367,-3.3035],[-68.27475,-3.32749],[-68.26101,-3.34223],[-68.23561,-3.35011],[-68.19441,-3.35045],[-68.15939,-3.33708],[-68.1072,-3.32886],[-68.08454,-3.33023],[-68.0509,-3.34428],[-68.01503,-3.35047],[-67.99857,-3.35177],[-67.98787,-3.35025],[-67.95795,-3.33742],[-67.94719,-3.32896],[-67.92955,-3.29289],[-67.92268,-3.25793],[-67.93092,-3.20411],[-67.93058,-3.17429],[-67.91993,-3.09133],[-67.90448,-3.06253],[-67.88698,-3.03544],[-67.85505,-3.00939],[-67.82758,-2.98299],[-67.80561,-2.93704],[-67.77608,-2.9055],[-67.76492,-2.88904],[-67.73561,-2.87455],[-67.71823,-2.85621],[-67.6948,-2.81352],[-67.66169,-2.78805],[-67.62324,-2.76679],[-67.58925,-2.76027],[-67.53844,-2.76062],[-67.49964,-2.74313],[-67.47321,-2.72461],[-67.45398,-2.69032],[-67.41141,-2.63064],[-67.38463,-2.58057],[-67.35957,-2.55553],[-67.31803,-2.54456],[-67.27183,-2.55793],[-67.25155,-2.56821],[-67.24594,-2.58324],[-67.23793,-2.65267],[-67.21001,-2.68059],[-67.16132,-2.67057],[-67.12122,-2.61973],[-67.07468,-2.61114],[-67.05105,-2.63477],[-67.05248,-2.68847],[-67.04675,-2.7436],[-67.00594,-2.7701],[-66.98238,-2.77563],[-66.96298,-2.77511],[-66.9484,-2.76946],[-66.93913,-2.76123],[-66.9279,-2.7436],[-66.90713,-2.68775],[-66.88404,-2.66518],[-66.87412,-2.65971],[-66.86426,-2.65771],[-66.85455,-2.65842],[-66.84867,-2.66052],[-66.82793,-2.67736],[-66.80044,-2.70494],[-66.75677,-2.73215],[-66.6823,-2.69849],[-66.61714,-2.66126],[-66.58993,-2.60541],[-66.58779,-2.55171],[-66.63003,-2.46579],[-66.60783,-2.4307],[-66.56201,-2.41925],[-66.51905,-2.40206],[-66.43671,-2.38846],[-66.42774,-2.3935],[-66.40835,-2.41391],[-66.40377,-2.42426],[-66.40783,-2.44393],[-66.40461,-2.52092],[-66.38444,-2.57462],[-66.34147,-2.59539],[-66.2978,-2.58823],[-66.27274,-2.55887],[-66.22355,-2.50916],[-66.21116,-2.50517],[-66.17321,-2.52164],[-66.14314,-2.51877],[-66.12452,-2.50159],[-66.08146,-2.48434],[-66.05292,-2.4844],[-66.00678,-2.46945],[-65.97344,-2.45075],[-65.89754,-2.4887],[-65.82737,-2.50517],[-65.80661,-2.54025],[-65.77152,-2.59324],[-65.68417,-2.65696],[-65.62617,-2.66413],[-65.55743,-2.64837],[-65.4665,-2.57104],[-65.42211,-2.50087],[-65.40151,-2.49785],[-65.38711,-2.50023],[-65.38063,-2.50949],[-65.37277,-2.52981],[-65.37153,-2.55723],[-65.36053,-2.58751],[-65.36143,-2.61449],[-65.37342,-2.64766],[-65.39919,-2.69348],[-65.38988,-2.73644],[-65.34478,-2.77368],[-65.29394,-2.7794],[-65.2116,-2.74074],[-65.17651,-2.7479],[-65.15431,-2.78227],[-65.16792,-2.89039],[-65.14143,-2.92977],[-65.12899,-2.94252],[-65.1192,-2.94526],[-65.11135,-2.94266],[-65.04978,-2.967],[-65.03402,-3.02643],[-64.98175,-3.0565],[-64.92805,-3.07082],[-64.88437,-3.1188],[-64.82182,-3.16375],[-64.80783,-3.16631],[-64.78599,-3.16695],[-64.77499,-3.16965],[-64.75977,-3.17557],[-64.72655,-3.20762],[-64.70322,-3.22548],[-64.66742,-3.27131],[-64.62804,-3.29494],[-64.53567,-3.33862],[-64.47481,-3.39661],[-64.44187,-3.48254],[-64.39104,-3.52836],[-64.33447,-3.55127],[-64.2865,-3.59638],[-64.23208,-3.64507],[-64.19198,-3.66727],[-64.1168,-3.69806],[-64.07169,-3.70951],[-64.03804,-3.71381],[-63.9736,-3.78971],[-63.93851,-3.81262],[-63.88839,-3.82479],[-63.83183,-3.85701],[-63.72371,-3.87491],[-63.66284,-3.87348],[-63.58122,-3.83983],[-63.53611,-3.84198],[-63.41806,-3.87924],[-63.41244,-3.88262],[-63.39034,-3.90193],[-63.36784,-3.91358],[-63.32846,-3.92289],[-63.22321,-3.92074],[-63.1645,-3.9322],[-63.14015,-3.95654],[-63.15089,-4.00022],[-63.13943,-4.03315],[-63.06497,-4.06609],[-63.04277,-4.06251],[-62.98477,-4.02241],[-62.94539,-3.96227],[-62.90816,-3.94365],[-62.88024,-3.91501],[-62.80004,-3.88852],[-62.63894,-3.90284],[-62.52008,-3.84269],[-62.47282,-3.83911],[-62.37694,-3.80174],[-62.2709,-3.75749],[-62.23367,-3.77467],[-62.1814,-3.80832],[-62.12841,-3.82336],[-62.04935,-3.86295],[-61.9938,-3.90499],[-61.87709,-3.96871],[-61.84167,-3.9789],[-61.82554,-3.98017],[-61.80803,-3.97718],[-61.79332,-3.96871],[-61.7773,-3.94482],[-61.77198,-3.93334],[-61.76682,-3.91788],[-61.76374,-3.90235],[-61.76031,-3.89412],[-61.74709,-3.88059],[-61.73031,-3.87205],[-61.65584,-3.85701],[-61.64767,-3.854],[-61.63925,-3.84475],[-61.63723,-3.83911],[-61.62935,-3.79472],[-61.62157,-3.77675],[-61.58089,-3.74848],[-61.56269,-3.73238],[-61.52201,-3.70086],[-61.48972,-3.68445],[-61.43101,-3.62646],[-61.38067,-3.59324],[-61.36986,-3.58982],[-61.3472,-3.59616],[-61.3278,-3.59993],[-61.28059,-3.59718],[-61.19186,-3.58421],[-61.06441,-3.58421],[-60.97003,-3.60961],[-60.94294,-3.60318],[-60.91753,-3.59461],[-60.90294,-3.5869],[-60.88388,-3.57371],[-60.86661,-3.55839],[-60.80973,-3.53088],[-60.79805,-3.5206],[-60.76418,-3.48779],[-60.67753,-3.34242],[-60.65927,-3.33065],[-60.64399,-3.32603],[-60.62803,-3.32397],[-60.61618,-3.32637],[-60.54207,-3.32737],[-60.48967,-3.33545],[-60.46684,-3.33665],[-60.4471,-3.33031],[-60.41482,-3.30769],[-60.39663,-3.29809],[-60.35886,-3.28764],[-60.32519,-3.28484],[-60.31231,-3.29204],[-60.2567,-3.33187],[-60.25393,-3.33253],[-60.2133,-3.33408],[-60.20279,-3.33197],[-60.17281,-3.32034],[-60.14884,-3.32345],[-60.09812,-3.32166],[-60.0301,-3.28705],[-59.93283,-3.26736],[-59.89905,-3.23847],[-59.88516,-3.19604],[-59.88464,-3.18496],[-59.89286,-3.16831],[-59.89575,-3.14019],[-59.89334,-3.12934],[-59.89273,-3.11885],[-59.86411,-3.09945],[-59.81996,-3.08175],[-59.75896,-3.06347],[-59.6805,-3.06502],[-59.59774,-3.09503],[-59.58745,-3.10034],[-59.53523,-3.12783],[-59.47907,-3.1286],[-59.38299,-3.1664],[-59.37821,-3.16888],[-59.31536,-3.2037],[-59.21837,-3.23375],[-59.16756,-3.26711],[-59.13494,-3.27472],[-59.07624,-3.26232],[-59.01358,-3.23695],[-58.97049,-3.24586],[-58.90715,-3.27243],[-58.86234,-3.30807],[-58.78304,-3.33592],[-58.68622,-3.37354],[-58.62168,-3.3708],[-58.58151,-3.33961],[-58.56777,-3.29025],[-58.56365,-3.23404],[-58.50083,-3.15149],[-58.47061,-3.14601],[-58.40958,-3.16979],[-58.40298,-3.17234],[-58.26428,-3.21621],[-58.22891,-3.20627],[-58.17639,-3.15588],[-58.17089,-3.11612],[-58.16403,-3.03247],[-58.15871,-3.01458],[-58.12729,-2.90739],[-58.07785,-2.84293],[-58.05584,-2.83752],[-57.95185,-2.822],[-57.84473,-2.7944],[-57.80491,-2.77982],[-57.76114,-2.75616],[-57.73212,-2.72907],[-57.70603,-2.69015],[-57.67891,-2.64556],[-57.65866,-2.60589],[-57.59411,-2.50711],[-57.55188,-2.40668],[-57.5203,-2.37924],[-57.48013,-2.37402],[-57.44168,-2.37951],[-57.40494,-2.39296],[-57.36237,-2.42452],[-57.32392,-2.46842],[-57.27688,-2.53181],[-57.2398,-2.54964],[-57.20307,-2.54937],[-57.15054,-2.52906],[-57.06848,-2.54525],[-57.05106,-2.54683],[-56.95403,-2.55565],[-56.93253,-2.5576],[-56.79138,-2.60419],[-56.77099,-2.60801],[-56.72694,-2.60844],[-56.6828,-2.60115],[-56.67549,-2.59891],[-56.58371,-2.55486],[-56.47385,-2.45744],[-56.42544,-2.36305],[-56.40072,-2.28346],[-56.37223,-2.25849],[-56.29498,-2.23818],[-56.15353,-2.15172],[-56.10374,-2.09114],[-56.09207,-2.07335],[-56.08692,-2.06099],[-56.08284,-2.04324],[-56.08574,-2.02996],[-56.09145,-2.0195],[-56.094,-2.00901],[-56.09297,-1.99855],[-56.08894,-1.98624],[-56.073,-1.9476],[-56.04607,-1.93371],[-56.02791,-1.9372],[-56.00418,-1.95382],[-55.87097,-2.00323],[-55.78231,-1.99547],[-55.70343,-1.97304],[-55.63614,-1.9099],[-55.60044,-1.89755],[-55.55374,-1.90167],[-55.51666,-1.92637],[-55.39032,-2.04852],[-55.30243,-2.11989],[-55.11154,-2.17066],[-54.93628,-2.17523],[-54.8616,-2.16415],[-54.79294,-2.18233],[-54.6817,-2.41148],[-54.63776,-2.45127],[-54.61613,-2.46009],[-54.48169,-2.458],[-54.38235,-2.40482],[-54.26897,-2.3998],[-54.20965,-2.37952],[-54.18388,-2.36774],[-54.13977,-2.33849],[-54.12054,-2.32357],[-54.09209,-2.29368],[-54.04911,-2.23561],[-54.00916,-2.03349],[-53.89609,-1.96723],[-53.84522,-1.94445],[-53.7307,-1.90972],[-53.65916,-1.89505],[-53.57264,-1.89138],[-53.55208,-1.88622],[-53.52728,-1.86777],[-53.50077,-1.85488],[-53.44411,-1.83397],[-53.42789,-1.82505],[-53.37845,-1.7934],[-53.33244,-1.77349],[-53.29742,-1.76646],[-53.25056,-1.76097],[-53.2037,-1.75839],[-53.15409,-1.76148],[-53.10946,-1.77143],[-53.07272,-1.77264],[-53.04083,-1.76566],[-53.01041,-1.75222],[-52.98037,-1.72974],[-52.95067,-1.69731],[-52.91942,-1.64425],[-52.84818,-1.59007],[-52.75486,-1.57502],[-52.6904,-1.58077],[-52.68321,-1.57905],[-52.64597,-1.57871],[-52.59584,-1.57411],[-52.56726,-1.5699],[-52.50819,-1.56544],[-52.47976,-1.56733],[-52.40582,-1.56038],[-52.29449,-1.52469],[-52.286,-1.52306],[-52.27192,-1.51697],[-52.26308,-1.51019],[-52.24634,-1.50161],[-52.23862,-1.49028],[-52.23027,-1.48601],[-52.12367,-1.47002],[-52.09909,-1.44642],[-51.97882,-1.42545],[-51.91195,-1.35325],[-51.89461,-1.32785],[-51.89135,-1.30932],[-51.89349,-1.27182],[-51.90182,-1.21716],[-51.90096,-1.19193],[-51.89238,-1.17511],[-51.88201,-1.16635],[-51.86465,-1.15932],[-51.84654,-1.15718],[-51.80907,-1.15733],[-51.78862,-1.1476],[-51.7784,-1.14041],[-51.77736,-1.15872],[-51.78414,-1.19369],[-51.78925,-1.20068],[-51.79539,-1.20703],[-51.82534,-1.22677],[-51.84268,-1.2366],[-51.86191,-1.24209],[-51.86543,-1.24595],[-51.86967,-1.26075],[-51.87439,-1.26556],[-51.8816,-1.27023],[-51.89349,-1.27182]],[[-73.23646,-3.95304],[-73.24757,-3.94569],[-73.25263,-3.92831],[-73.25838,-3.91726],[-73.25467,-3.89638]],[[-73.18638,-3.97875],[-73.19515,-3.9621],[-73.19585,-3.95601],[-73.19118,-3.90125],[-73.18631,-3.89275],[-73.16242,-3.8777],[-73.15934,-3.87217],[-73.15847,-3.86497],[-73.16351,-3.81877]],[[-72.24737,-3.53981],[-72.23793,-3.55481],[-72.22533,-3.56215],[-72.21724,-3.56949],[-72.21209,-3.56997],[-72.20292,-3.56152],[-72.1988,-3.55493],[-72.1961,-3.54777],[-72.19438,-3.53107],[-72.19108,-3.52284]],[[-72.13619,-3.48419],[-72.13222,-3.48384],[-72.13047,-3.485],[-72.12733,-3.49075],[-72.12017,-3.49805],[-72.11228,-3.49954],[-72.10233,-3.49755],[-72.09834,-3.49494],[-72.08386,-3.4766],[-72.0757,-3.47193],[-72.07209,-3.47116],[-72.06622,-3.47207],[-72.06074,-3.47514],[-72.05382,-3.48227],[-72.04893,-3.48379],[-72.03373,-3.4781],[-72.0224,-3.47104],[-72.01514,-3.46155],[-72.00864,-3.44959],[-71.99942,-3.44257]],[[-69.94388,-4.28032],[-69.93808,-4.2951],[-69.94366,-4.31017],[-69.94668,-4.315],[-69.95316,-4.32133],[-69.97739,-4.34199],[-69.99267,-4.35205],[-70.00088,-4.35951],[-70.00307,-4.36311],[-70.00337,-4.36796],[-70.00249,-4.37134],[-69.9994,-4.37423],[-69.95818,-4.38988],[-69.92968,-4.39639],[-69.88951,-4.40289],[-69.86823,-4.40118],[-69.83664,-4.39399],[-69.79342,-4.38111]],[[-69.51218,-4.26792],[-69.48045,-4.26323],[-69.46294,-4.25705],[-69.44702,-4.24012],[-69.43884,-4.22585],[-69.42985,-4.21453],[-69.42378,-4.19041],[-69.41027,-4.17021]],[[-67.93092,-3.20411],[-67.96675,-3.14917],[-67.96954,-3.13413],[-67.96825,-3.12809],[-67.96447,-3.12299],[-67.94088,-3.11155],[-67.91993,-3.09133]],[[-59.58745,-3.10034],[-59.57472,-3.12089],[-59.51744,-3.18832],[-59.48681,-3.20746],[-59.45076,-3.20942],[-59.4463,-3.20869],[-59.4117,-3.19545],[-59.37821,-3.16888]],[[-58.40958,-3.16979],[-58.32606,-3.11506],[-58.23782,-3.08043],[-58.18804,-3.04306],[-58.15871,-3.01458]],[[-57.30084,-2.4995],[-57.23298,-2.47162],[-57.2189,-2.46819],[-57.20049,-2.47047],[-57.18697,-2.47813],[-57.17766,-2.48874],[-57.16521,-2.50966],[-57.15054,-2.52906]],[[-57.27688,-2.53181],[-57.27803,-2.55091],[-57.27579,-2.56932],[-57.26868,-2.58635],[-57.25924,-2.60195],[-57.2474,-2.61756],[-57.22697,-2.62887],[-57.2086,-2.63316],[-57.19178,-2.63179],[-57.17118,-2.6323],[-57.15092,-2.62973],[-57.12844,-2.62287],[-57.10852,-2.60418],[-57.0917,-2.58532],[-57.07711,-2.56628],[-57.05106,-2.54683]],[[-57.27579,-2.56932],[-57.24791,-2.58154],[-57.21633,-2.59235],[-57.19298,-2.5932],[-57.13685,-2.59098],[-57.11882,-2.58429],[-57.10646,-2.57588],[-57.07711,-2.56628]],[[-53.45869,-1.8395],[-53.41995,-1.8641],[-53.39341,-1.86368],[-53.35987,-1.86547],[-53.35186,-1.86419],[-53.31904,-1.85107],[-53.29418,-1.83463],[-53.27497,-1.82009],[-53.25717,-1.8126],[-53.22594,-1.81443],[-53.21225,-1.81252],[-53.19112,-1.80271],[-53.1763,-1.79934],[-53.15076,-1.78937],[-53.10946,-1.77143]],[[-52.91942,-1.64425],[-52.83445,-1.64112],[-52.80055,-1.63056],[-52.7615,-1.62078],[-52.72734,-1.6098],[-52.71533,-1.60139],[-52.70296,-1.59273],[-52.6904,-1.58077]],[[-52.71533,-1.60139],[-52.69864,-1.60524],[-52.66375,-1.59608],[-52.65733,-1.59053],[-52.65162,-1.57887]],[[-52.68321,-1.57905],[-52.66228,-1.55506],[-52.64631,-1.54562],[-52.62949,-1.53893],[-52.59739,-1.53721],[-52.55293,-1.53962],[-52.52967,-1.52014],[-52.50795,-1.50598],[-52.45972,-1.48367],[-52.40307,-1.44678],[-52.36822,-1.43134],[-52.33938,-1.4243],[-52.30934,-1.41949],[-52.2769,-1.41074],[-52.2472,-1.39427],[-52.19931,-1.36269],[-52.18454,-1.35789],[-52.17356,-1.35926],[-52.16824,-1.36321],[-52.14798,-1.39598],[-52.1236,-1.42842],[-52.11004,-1.44009],[-52.09909,-1.44642]],[[-52.56726,-1.5699],[-52.55293,-1.53962]],[[-51.97882,-1.42545],[-51.96116,-1.44744],[-51.91897,-1.48868],[-51.84645,-1.51617],[-51.78152,-1.48015],[-51.64359,-1.37776],[-51.51541,-1.27482],[-51.49241,-1.25835],[-51.42812,-1.21973],[-51.34213,-1.07868],[-51.28924,-1.04365],[-51.25293,-1.00644],[-51.2384,-0.97649],[-51.23523,-0.93746],[-51.22751,-0.87302],[-51.21299,-0.80131],[-51.16256,-0.69272],[-51.13638,-0.66998],[-51.1078,-0.65951],[-51.06828,-0.65736],[-51.0501,-0.65427],[-51.03259,-0.64561],[-50.99302,-0.60519],[-50.97317,-0.58231],[-50.93044,-0.56352],[-50.83316,-0.53249],[-50.7677,-0.5034],[-50.7357,-0.43904],[-50.74973,-0.39368],[-50.74731,-0.35544],[-50.72349,-0.28916],[-50.68241,-0.21931],[-50.62246,-0.15651],[-50.56083,-0.11767],[-50.50707,-0.09302],[-50.44274,-0.08957],[-50.34725,-0.07884],[-50.26102,-0.08418],[-50.18067,-0.09566],[-50.0659,-0.10331],[-49.96101,-0.1028],[-49.87047,-0.13341],[-49.77099,-0.15891],[-49.66642,-0.18824],[-49.53634,-0.18442],[-49.4117,-0.14518],[-49.40633,-0.14252],[-49.34389,-0.09922],[-49.32243,-0.08102],[-49.29136,-0.0448],[-49.27591,-0.02253]],[[-51.67613,-1.01001],[-51.66836,-1.03438],[-51.66098,-1.04742],[-51.65806,-1.05703],[-51.6584,-1.06887],[-51.66115,-1.08054],[-51.66698,-1.09101],[-51.67522,-1.09977],[-51.68587,-1.108],[-51.72235,-1.13083],[-51.74294,-1.14001],[-51.76423,-1.14405],[-51.7784,-1.14041],[-51.77939,-1.12466],[-51.77578,-1.11067],[-51.76677,-1.09548],[-51.74823,-1.07575],[-51.73201,-1.0627],[-51.69364,-1.04108],[-51.68214,-1.02778],[-51.67613,-1.01001],[-51.69236,-0.90013],[-51.69049,-0.89251],[-51.69162,-0.86693],[-51.69095,-0.85381],[-51.68887,-0.84455],[-51.68821,-0.82321],[-51.68607,-0.81847],[-51.68353,-0.79412],[-51.67924,-0.78526],[-51.67149,-0.77619],[-51.66553,-0.76211],[-51.6566,-0.74958],[-51.63403,-0.71049],[-51.62001,-0.69105],[-51.61218,-0.67633],[-51.596,-0.65127],[-51.57206,-0.6232],[-51.5394,-0.59355],[-51.52661,-0.58051],[-51.51511,-0.56607],[-51.50091,-0.55388],[-51.48674,-0.54575],[-51.48043,-0.53676],[-51.46479,-0.51948],[-51.45764,-0.51326],[-51.43248,-0.47334],[-51.4161,-0.40925],[-51.36872,-0.36393],[-51.33095,-0.26094],[-51.19225,-0.11537],[-51.00617,-0.01992],[-50.87296,0.10779],[-50.55161,0.29113],[-50.42222,0.6007],[-50.39806,0.62312],[-50.36734,0.64149],[-50.32064,0.66208],[-49.99474,0.70653]],[[-51.64359,-1.37776],[-51.58636,-1.36609],[-51.51156,-1.3361],[-51.46297,-1.31507],[-51.44992,-1.3058],[-51.43706,-1.29106],[-51.37737,-1.23027],[-51.30343,-1.19625],[-51.26289,-1.18704],[-51.2544,-1.18352],[-51.24933,-1.17975],[-51.24221,-1.17108],[-51.22362,-1.14154],[-51.19763,-1.0539],[-51.16649,-0.9599],[-51.16438,-0.85248],[-51.12917,-0.81236],[-51.12599,-0.80694],[-51.12465,-0.80226],[-51.12096,-0.7379],[-51.11186,-0.70612],[-51.06828,-0.65736]]]}}]}